[Satellite]
VERSION=1.1
NAME=LAPAN-A2 (IO-86)
NICKNAME=LAPAN-A2 (IO-86)
TLE1=1 40931U 15052B   25151.18580175  .00001241  00000-0  78118-4 0  9996
TLE2=2 40931   6.0006  24.0987 0012733 338.8432  21.1169 14.78805930523047
STATUS=0
